IRIDIUM 171             
1 43929U 19002H   23349.56582026  .00000028  00000+0  30683-5 0  9998
2 43929  86.3984  16.0225 0002118  92.1596 267.9842 14.34216913257867
IRIDIUM 170             
1 43930U 19002J   23349.59176879  .00000870  00000+0  13416-3 0  9996
2 43930  86.6103  15.8597 0002545  91.0706 269.0802 14.72244951264692
IRIDIUM 167             
1 43931U 19002K   23349.62924561  .00000232  00000+0  75881-4 0  9997
2 43931  86.3975  15.8052 0002096  89.1782 270.9654 14.34217959257870
IRIDIUM 181             
1 56726U 23068S   23349.72501811  .00000393  00000+0  11027-3 0  9999
2 56726  86.8634  60.5414 0002509  74.4701 285.6777 14.43574963 30520
IRIDIUM 177             
1 56727U 23068T   23349.67270015  .00001224  00000+0  15754-3 0  9998
2 56727  86.1981  42.9525 0002283  95.3478 264.8003 14.80235265 31081
IRIDIUM 174             
1 56728U 23068U   23349.66733931  .00001221  00000+0  15730-3 0  9990
2 56728  86.1988  43.0439 0002079  95.2083 264.9376 14.80214959 31080
IRIDIUM 178             
1 56729U 23068V   23349.72956279  .00001247  00000+0  16068-3 0  9993
2 56729  86.5787  51.7341 0002276  97.9504 262.1976 14.80224860 31095
IRIDIUM 179             
1 56730U 23068W   23349.72411998  .00001251  00000+0  16121-3 0  9994
2 56730  86.6796  53.5470 0002226  99.3528 260.7946 14.80222119 31094
